GLOBALSTAR M094         
1 39074U 13005C   25319.73502013 -.00000101  00000+0  13742-4 0  9996
2 39074  51.9959  80.6956 0000666 128.2745 231.8181 12.62264956591512
GLOBALSTAR M096         
1 39075U 13005D   25319.74815324 -.00000079  00000+0  13646-3 0  9996
2 39075  52.0045 129.2894 0000900 112.3179 247.7783 12.62268932590430
GLOBALSTAR M078         
1 39076U 13005E   25319.72226683 -.00000138  00000+0 -19345-3 0  9998
2 39076  51.9866 213.6772 0001285 118.2877 241.8119 12.62272281589056
GLOBALSTAR M095         
1 39077U 13005F   25319.66917427 -.00000081  00000+0  12849-3 0  9993
2 39077  52.0068 211.1388 0000767 102.5605 257.5347 12.62266349588906
GLOBALSTAR M087         
1 52888U 22064A   25319.52370473 -.00000079  00000+0  14022-3 0  9994
2 52888  52.0018 352.9396 0000291 142.3416 217.7471 12.62260493164150
